{"type": "FeatureCollection", "features": [ {"type": "Feature", "properties": {"norad_id": 66442, "name": "STARLINK-34724", "group": "last-30-days", "lat": 39.61156668123417, "lon": 169.43644012811706, "alt_km": 438.5770633250668, "timestamp": "2025-12-11T22:43:46.022443+00:00", "meta": {"OBJECT_NAME": "STARLINK-34724", "OBJECT_ID": "2025-259W", "EPOCH": "2025-12-11T14:00:01.999872", "MEAN_MOTION": 15.40603458, "ECCENTRICITY": 0.00012015, "INCLINATION": 43.0004, "RA_OF_ASC_NODE": 54.1709, "ARG_OF_PERICENTER": 284.679, "MEAN_ANOMALY": 326.4131, "EPHEMERIS_TYPE": 0, "CLASSIFICATION_TYPE": "U", "NORAD_CAT_ID": 66442, "ELEMENT_SET_NO": 999, "REV_AT_EPOCH": 609, "BSTAR": 0.0027996532, "MEAN_MOTION_DOT": 0.00118092, "MEAN_MOTION_DDOT": 0}, "tle": {"line1": "1 66442U 25259W   25345.58335648  .00118092  00000+0  27997-2 0  9992", "line2": "2 66442  43.0004  54.1709 0001201 284.6790 326.4131 15.40603458  6092"}}, "geometry": {"type": "Point", "coordinates": [169.43644012811706, 39.61156668123417]}}, {"type": "Feature", "properties": {"norad_id": 66443, "name": "STARLINK-35219", "group": "last-30-days", "lat": 34.802426701812166, "lon": -176.19123267229878, "alt_km": 439.1265780121739, "timestamp": "2025-12-11T22:43:46.022454+00:00", "meta": {"OBJECT_NAME": "STARLINK-35219", "OBJECT_ID": "2025-259X", "EPOCH": "2025-12-11T14:00:01.999872", "MEAN_MOTION": 15.40642964, "ECCENTRICITY": 0.00010052, "INCLINATION": 43.0009, "RA_OF_ASC_NODE": 54.1405, "ARG_OF_PERICENTER": 283.8758, "MEAN_ANOMALY": 339.5851, "EPHEMERIS_TYPE": 0, "CLASSIFICATION_TYPE": "U", "NORAD_CAT_ID": 66443, "ELEMENT_SET_NO": 999, "REV_AT_EPOCH": 598, "BSTAR": 0.0020860505, "MEAN_MOTION_DOT": 0.00087676, "MEAN_MOTION_DDOT": 0}, "tle": {"line1": "1 66443U 25259X   25345.58335648  .00087676  00000+0  20861-2 0  9999", "line2": "2 66443  43.0009  54.1405 0001005 283.8758 339.5851 15.40642964  5984"}}, "geometry": {"type": "Point", "coordinates": [-176.19123267229878, 34.802426701812166]}}, {"type": "Feature", "properties": {"norad_id": 66444, "name": "STARLINK-35360", "group": "last-30-days", "lat": 13.245139281275376, "lon": -142.67676424229347, "alt_km": 440.3349896020454, "timestamp": "2025-12-11T22:43:46.022465+00:00", "meta": {"OBJECT_NAME": "STARLINK-35360", "OBJECT_ID": "2025-259Y", "EPOCH": "2025-12-11T14:00:01.999872", "MEAN_MOTION": 15.43281226, "ECCENTRICITY": 0.00018508, "INCLINATION": 43.0011, "RA_OF_ASC_NODE": 54.0552, "ARG_OF_PERICENTER": 269.5033, "MEAN_ANOMALY": 28.929, "EPHEMERIS_TYPE": 0, "CLASSIFICATION_TYPE": "U", "NORAD_CAT_ID": 66444, "ELEMENT_SET_NO": 999, "REV_AT_EPOCH": 609, "BSTAR": -0.056702367, "MEAN_MOTION_DOT": -0.02307398, "MEAN_MOTION_DDOT": 0}, "tle": {"line1": "1 66444U 25259Y   25345.58335648 -.02307398  00000+0 -56702-1 0  9992", "line2": "2 66444  43.0011  54.0552 0001850 269.5033  28.9290 15.43281226  6097"}}, "geometry": {"type": "Point", "coordinates": [-142.67676424229347, 13.245139281275376]}}, {"type": "Feature", "properties": {"norad_id": 66445, "name": "STARLINK-34698", "group": "last-30-days", "lat": 28.50813748126021, "lon": -163.63753657267736, "alt_km": 440.7894907525033, "timestamp": "2025-12-11T22:43:46.022479+00:00", "meta": {"OBJECT_NAME": "STARLINK-34698", "OBJECT_ID": "2025-259Z", "EPOCH": "2025-12-11T14:00:01.999872", "MEAN_MOTION": 15.40609185, "ECCENTRICITY": 0.00020158, "INCLINATION": 43.001, "RA_OF_ASC_NODE": 54.1091, "ARG_OF_PERICENTER": 288.0999, "MEAN_ANOMALY": 347.7991, "EPHEMERIS_TYPE": 0, "CLASSIFICATION_TYPE": "U", "NORAD_CAT_ID": 66445, "ELEMENT_SET_NO": 999, "REV_AT_EPOCH": 598, "BSTAR": 0.0025136056, "MEAN_MOTION_DOT": 0.00105846, "MEAN_MOTION_DDOT": 0}, "tle": {"line1": "1 66445U 25259Z   25345.58335648  .00105846  00000+0  25136-2 0  9991", "line2": "2 66445  43.0010  54.1091 0002015 288.0999 347.7991 15.40609185  5989"}}, "geometry": {"type": "Point", "coordinates": [-163.63753657267736, 28.50813748126021]}}, {"type": "Feature", "properties": {"norad_id": 66446, "name": "STARLINK-34986", "group": "last-30-days", "lat": 21.109239820104662, "lon": -152.49142177557388, "alt_km": 441.6726268909024, "timestamp": "2025-12-11T22:43:46.022490+00:00", "meta": {"OBJECT_NAME": "STARLINK-34986", "OBJECT_ID": "2025-259AA", "EPOCH": "2025-12-11T14:00:01.999872", "MEAN_MOTION": 15.4141536, "ECCENTRICITY": 0.00012736, "INCLINATION": 43.001, "RA_OF_ASC_NODE": 54.0793, "ARG_OF_PERICENTER": 279.7438, "MEAN_ANOMALY": 8.2072, "EPHEMERIS_TYPE": 0, "CLASSIFICATION_TYPE": "U", "NORAD_CAT_ID": 66446, "ELEMENT_SET_NO": 999, "REV_AT_EPOCH": 609, "BSTAR": -0.026066871, "MEAN_MOTION_DOT": -0.01014219, "MEAN_MOTION_DDOT": 0}, "tle": {"line1": "1 66446U 25259AA  25345.58335648 -.01014219  00000+0 -26067-1 0  9991", "line2": "2 66446  43.0010  54.0793 0001273 279.7438   8.2072 15.41415360  6091"}}, "geometry": {"type": "Point", "coordinates": [-152.49142177557388, 21.109239820104662]}}, {"type": "Feature", "properties": {"norad_id": 66447, "name": "STARLINK-34851", "group": "last-30-days", "lat": -11.53512204566626, "lon": -115.48894811966842, "alt_km": 415.0513581012938, "timestamp": "2025-12-11T22:43:46.022501+00:00", "meta": {"OBJECT_NAME": "STARLINK-34851", "OBJECT_ID": "2025-259AB", "EPOCH": "2025-12-10T05:41:44.121408", "MEAN_MOTION": 15.50651186, "ECCENTRICITY": 0.0001321, "INCLINATION": 42.9984, "RA_OF_ASC_NODE": 61.8661, "ARG_OF_PERICENTER": 284.8329, "MEAN_ANOMALY": 75.2384, "EPHEMERIS_TYPE": 0, "CLASSIFICATION_TYPE": "U", "NORAD_CAT_ID": 66447, "ELEMENT_SET_NO": 999, "REV_AT_EPOCH": 567, "BSTAR": 0.0017574, "MEAN_MOTION_DOT": 0.00104412, "MEAN_MOTION_DDOT": 0}, "tle": {"line1": "1 66447U 25259AB  25344.23731622  .00104412  00000+0  17574-2 0  9991", "line2": "2 66447  42.9984  61.8661 0001321 284.8329  75.2384 15.50651186  5671"}}, "geometry": {"type": "Point", "coordinates": [-115.48894811966842, -11.53512204566626]}}, {"type": "Feature", "properties": {"norad_id": 66448, "name": "STARLINK-35355", "group": "last-30-days", "lat": -14.128665821636238, "lon": -112.47825779217125, "alt_km": 413.875792463994, "timestamp": "2025-12-11T22:43:46.022512+00:00", "meta": {"OBJECT_NAME": "STARLINK-35355", "OBJECT_ID": "2025-259AC", "EPOCH": "2025-12-11T12:35:48.635808", "MEAN_MOTION": 15.51423561, "ECCENTRICITY": 0.00054567, "INCLINATION": 43.001, "RA_OF_ASC_NODE": 54.3241, "ARG_OF_PERICENTER": 293.1921, "MEAN_ANOMALY": 66.8365, "EPHEMERIS_TYPE": 0, "CLASSIFICATION_TYPE": "U", "NORAD_CAT_ID": 66448, "ELEMENT_SET_NO": 999, "REV_AT_EPOCH": 598, "BSTAR": 0.0027883046, "MEAN_MOTION_DOT": 0.00172055, "MEAN_MOTION_DDOT": 0}, "tle": {"line1": "1 66448U 25259AC  25345.52486847  .00172055  00000+0  27883-2 0  9993", "line2": "2 66448  43.0010  54.3241 0005456 293.1921  66.8365 15.51423561  5983"}}, "geometry": {"type": "Point", "coordinates": [-112.47825779217125, -14.128665821636238]}}, {"type": "Feature", "properties": {"norad_id": 66449, "name": "STARLINK-34720", "group": "last-30-days", "lat": -6.002588149065845, "lon": -121.63783999534785, "alt_km": 430.59808383465133, "timestamp": "2025-12-11T22:43:46.022523+00:00", "meta": {"OBJECT_NAME": "STARLINK-34720", "OBJECT_ID": "2025-259AD", "EPOCH": "2025-12-11T14:00:01.999872", "MEAN_MOTION": 15.47065084, "ECCENTRICITY": 0.00010241, "INCLINATION": 43.0013, "RA_OF_ASC_NODE": 53.9974, "ARG_OF_PERICENTER": 274.7358, "MEAN_ANOMALY": 47.0232, "EPHEMERIS_TYPE": 0, "CLASSIFICATION_TYPE": "U", "NORAD_CAT_ID": 66449, "ELEMENT_SET_NO": 999, "REV_AT_EPOCH": 598, "BSTAR": -0.043475364, "MEAN_MOTION_DOT": -0.02009914, "MEAN_MOTION_DDOT": 0}, "tle": {"line1": "1 66449U 25259AD  25345.58335648 -.02009914  00000+0 -43475-1 0  9993", "line2": "2 66449  43.0013  53.9974 0001024 274.7358  47.0232 15.47065084  5982"}}, "geometry": {"type": "Point", "coordinates": [-121.63783999534785, -6.002588149065845]}}, {"type": "Feature", "properties": {"norad_id": 66450, "name": "STARLINK-35334", "group": "last-30-days", "lat": -15.003695057571209, "lon": -111.44192415606396, "alt_km": 415.0097064997017, "timestamp": "2025-12-11T22:43:46.022533+00:00", "meta": {"OBJECT_NAME": "STARLINK-35334", "OBJECT_ID": "2025-259AE", "EPOCH": "2025-12-10T13:24:02.373120", "MEAN_MOTION": 15.50613633, "ECCENTRICITY": 0.0002029, "INCLINATION": 43.003, "RA_OF_ASC_NODE": 59.9713, "ARG_OF_PERICENTER": 266.842, "MEAN_ANOMALY": 93.2208, "EPHEMERIS_TYPE": 0, "CLASSIFICATION_TYPE": "U", "NORAD_CAT_ID": 66450, "ELEMENT_SET_NO": 999, "REV_AT_EPOCH": 583, "BSTAR": 0.0021725, "MEAN_MOTION_DOT": 0.00129395, "MEAN_MOTION_DDOT": 0}, "tle": {"line1": "1 66450U 25259AE  25344.55836080  .00129395  00000+0  21725-2 0  9994", "line2": "2 66450  43.0030  59.9713 0002029 266.8420  93.2208 15.50613633  5831"}}, "geometry": {"type": "Point", "coordinates": [-111.44192415606396, -15.003695057571209]}}, {"type": "Feature", "properties": {"norad_id": 66454, "name": "VIASAT-3 F2", "group": "last-30-days", "lat": -5.099751958126209, "lon": -178.6250281789719, "alt_km": 14804.150920281016, "timestamp": "2025-12-11T22:43:46.022548+00:00", "meta": {"OBJECT_NAME": "VIASAT-3 F2", "OBJECT_ID": "2025-261A", "EPOCH": "2025-12-08T12:11:15.383616", "MEAN_MOTION": 2.19142646, "ECCENTRICITY": 0.22792154, "INCLINATION": 5.457, "RA_OF_ASC_NODE": 292.6501, "ARG_OF_PERICENTER": 190.5469, "MEAN_ANOMALY": 204.5187, "EPHEMERIS_TYPE": 0, "CLASSIFICATION_TYPE": "U", "NORAD_CAT_ID": 66454, "ELEMENT_SET_NO": 999, "REV_AT_EPOCH": 55, "BSTAR": 0, "MEAN_MOTION_DOT": -8.1e-07, "MEAN_MOTION_DDOT": 0}, "tle": {"line1": "1 66454U 25261A   25342.50781694 -.00000081  00000+0  00000+0 0  9995", "line2": "2 66454   5.4570 292.6501 2279215 190.5469 204.5187  2.19142646   557"}}, "geometry": {"type": "Point", "coordinates": [-178.6250281789719, -5.099751958126209]}}]}